86P/Wild,e,15.4757,72.3769,179.3003,3.604389,0.1440312,0.37264781,259.1420,03/09.0/2020,2000,g 11.0,6.0
# From MPC105241
87P/Bus,e,2.6023,181.8619,24.9253,3.437812,0.1546254,0.38919039,350.5311,03/09.0/2020,2000,g  7.2,10.0
# From MPEC 2019-JE2
88P/Howell,e,4.3838,56.6855,235.9163,3.105313,0.1801134,0.56425605,323.6834,03/09.0/2020,2000,g 11.0,6.0
# From MPC100283
89P/Russell,e,12.0715,41.4213,250.2512,3.753934,0.1355109,0.40866611,159.8357,03/09.0/2020,2000,g 11.5,6.0
# From MPC107051
90P/Gehrels,e,9.6394,13.2182,29.1328,6.056595,0.0661243,0.50950952,65.7404,03/09.0/2020,2000,g  8.5,6.0
# From MPC105241
91P/Russell,e,14.0916,247.8285,354.7704,3.890599,0.1284338,0.33059028,328.4981,03/09.0/2020,2000,g  7.5,6.0
# From MPEC 2014-J58
92P/Sanguin,e,19.4731,181.3954,163.7075,5.346052,0.0797360,0.66030051,146.2081,03/09.0/2020,2000,g 12.0,6.0
# From NK 2707
93P/Lovas,e,12.2007,339.6222,74.8826,4.385185,0.1073303,0.61201881,118.5124,03/09.0/2020,2000,g  9.0,4.0
# From MPEC 2013-O31
94P/Russell,e,6.1878,70.8602,92.5242,3.506980,0.1500735,0.36471264,184.5376,03/09.0/2020,2000,g  9.0,4.0
# From MPC 75717
95P/Chiron,e,6.9412,209.2366,339.8143,13.68209,0.0194749,0.37914851,171.2192,03/09.0/2020,2000,g  6.5,2.0
# From MPEC 2017-T14
96P/Machholz,e,58.5069,94.2995,14.6211,3.028297,0.1870279,0.96110608,161.5386,03/09.0/2020,2000,g  9.0,4.0
# From MPC 77020
97P/Metcalf-Brewington,e,17.8634,184.4662,229.0735,4.788252,0.0940673,0.46124915,293.4948,03/09.0/2020,2000,g  5.5,6.0
# From MPEC 2013-H38
98P/Takamizawa,e,10.5613,114.7106,157.9061,3.799225,0.1330950,0.56219810,319.8165,03/09.0/2020,2000,g  9.0,8.0
# From MPC 75718
99P/Kowal,e,4.3378,28.1306,174.8871,6.115193,0.0651762,0.23050508,310.1909,03/09.0/2020,2000,g  4.5,6.0
# From MPEC 2013-O31
100P/Hartley,e,25.5752,37.7203,182.0007,3.431421,0.1550576,0.41273511,222.8206,03/09.0/2020,2000,g  9.0,4.0
# From MPC115887
101P/Chernykh,e,5.0528,116.2317,277.6950,5.797262,0.0706106,0.59551401,3.9882,03/09.0/2020,2000,g 12.0,4.8
# From MPC 86232
102P/Shoemaker,e,25.8718,339.3988,20.5429,3.815495,0.1322445,0.45770108,317.7593,03/09.0/2020,2000,g  6.5,8.0
# From MPEC 2018-HA5
103P/Hartley,e,13.5919,219.7275,181.3035,3.476849,0.1520286,0.69283651,160.2741,03/09.0/2020,2000,g  8.5,8.0
# From MPC100283
104P/Kowal,e,5.8001,209.9485,224.8631,3.200692,0.1721227,0.67144594,244.7129,03/09.0/2020,2000,g 16.0,4.0
# From MPC109147
105P/Singer Brewster,e,9.1742,192.4200,46.4554,3.466130,0.1527344,0.41001431,88.1076,03/09.0/2020,2000,g 11.5,6.0
# From MPC 92276
106P/Schuster,e,19.5910,49.0988,353.5582,3.762964,0.1350234,0.59485063,288.7829,03/09.0/2020,2000,g 14.0,4.8
# From MPEC 2015-M77
107P/Wilson-Harrington,e,2.7983,266.8175,95.3731,2.626075,0.2316026,0.63109521,151.7884,03/09.0/2020,2000,g  9.0,4.0
# From MPC 89313
108P/Ciffreo,e,11.4938,50.6690,354.1664,3.741132,0.1362070,0.55815297,285.1843,03/09.0/2020,2000,g  8.0,12.0
# From  105, 420
109P/Swift-Tuttle,e,113.8745,139.1284,152.8795,26.10241,0.0073907,0.96324518,73.6281,03/09.0/2020,2000,g  4.0,6.0
# From MPC 92276
110P/Hartley,e,11.7075,287.5344,167.4222,3.600994,0.1442349,0.31771670,275.1337,03/09.0/2020,2000,g  1.0,12.0
# From MPC 75718
111P/Helin-Roman-Crockett,e,4.2275,89.7631,1.2352,4.143821,0.1168430,0.10540196,305.6288,03/09.0/2020,2000,g  5.0,8.0
# From MPC118097
112P/Urata-Niijima,e,24.1907,31.8497,21.5006,3.526217,0.1488472,0.58975234,4.4704,03/09.0/2020,2000,g 14.0,6.0
# From MPEC 2015-E14
113P/Spitaler,e,5.2241,307.1665,115.4956,3.686122,0.1392674,0.43408467,247.9131,03/09.0/2020,2000,g 13.5,4.0
# From MPEC 2019-TG9
114P/Wiseman-Skiff,e,18.2723,271.0598,172.8123,3.547469,0.1475116,0.55478138,8.1009,03/09.0/2020,2000,g 11.5,6.0
# From MPC105241
115P/Maury,e,11.6742,176.0326,121.0272,4.274826,0.1115132,0.51886334,344.0738,03/09.0/2020,2000,g 10.5,6.0
# From MPC106348
116P/Wild,e,3.6046,21.0001,173.3977,3.488034,0.1512979,0.37104279,229.8978,03/09.0/2020,2000,g  2.5,10.0
# From MPEC 2015-S97
117P/Helin-Roman-Alu,e,8.7011,58.8610,222.6706,4.087827,0.1192519,0.25570962,258.6868,03/09.0/2020,2000,g  9.0,4.0
# From MPC 95735
118P/Shoemaker-Levy,e,9.0639,145.2802,308.9065,3.416687,0.1560617,0.45228429,207.3894,03/09.0/2020,2000,g 12.0,4.0
# From MPC 84628
119P/Parker-Hartley,e,7.5057,104.9596,321.5540,3.806453,0.1327160,0.41713669,246.0970,03/09.0/2020,2000,g  3.5,8.0
# From MPC 80901
120P/Mueller,e,8.4810,358.7273,36.2876,3.969897,0.1246049,0.37538065,307.2520,03/09.0/2020,2000,g 12.0,4.0
# From MPC100283
121P/Shoemaker-Holt,e,20.1644,94.1424,11.2243,4.587427,0.1003114,0.18466199,239.0569,03/09.0/2020,2000,g  6.5,8.0
# From MPC 75718
122P/de Vico,e,84.6121,79.5079,13.0258,17.63602,0.0133077,0.96230701,118.9271,03/09.0/2020,2000,g  7.5,5.2
# From MPC114608
123P/West-Hartley,e,15.3519,46.4916,103.1250,3.861133,0.1299068,0.44879920,51.6546,03/09.0/2020,2000,g  4.0,10.0
# From MPC118097
124P/Mrkos,e,31.5125,0.3710,183.8527,3.318127,0.1630664,0.50347637,352.0285,03/09.0/2020,2000,g 13.5,2.8
# From MPEC 2015-M77
125P/Spacewatch,e,9.9878,153.1680,87.2010,3.124648,0.1784442,0.51323187,99.7729,03/09.0/2020,2000,g  9.0,4.0
# From MPC 66205
126P/IRAS,e,45.8392,357.8400,356.4951,5.642583,0.0735338,0.69587011,270.7510,03/09.0/2020,2000,g  9.0,4.0
# From MPC 84321
127P/Holt-Olmstead,e,14.2988,13.6490,6.5641,3.449219,0.1538590,0.35980169,223.7488,03/09.0/2020,2000,g 11.0,6.0
# From MPC 89014
128P/Shoemaker-Holt,e,4.3655,214.2927,210.4177,4.494811,0.1034277,0.32032743,119.3947,03/09.0/2020,2000,g  8.5,4.0
# From MPEC 2019-TG9
129P/Shoemaker-Levy,e,3.4434,184.8928,308.3116,4.280197,0.1113034,0.08393490,248.3769,03/09.0/2020,2000,g 11.0,4.0
# From MPC 78188
130P/McNaught-Hughes,e,6.0644,70.2510,245.9469,3.383844,0.1583392,0.46121340,123.0229,03/09.0/2020,2000,g 10.0,6.0
# From MPC102101
131P/Mueller,e,7.3531,214.1824,179.0568,3.681870,0.1395087,0.34352134,57.1754,03/09.0/2020,2000,g 11.0,4.0
# From MPC 92985
132P/Helin-Roman-Alu,e,5.3792,174.1980,216.4062,3.880061,0.1289574,0.56576886,280.8054,03/09.0/2020,2000,g 11.0,6.0
# From MPC 94676
133P/Elst-Pizarro,e,1.3891,160.1306,131.6383,3.163111,0.1751993,0.15723170,93.6809,03/09.0/2020,2000,g 15.4,2.0
# From MPC 89012
134P/Kowal-Vavrova,e,4.3456,202.0840,18.8556,6.256203,0.0629851,0.58708539,133.4437,03/09.0/2020,2000,g 11.5,4.0
# From MPEC 2015-E14
135P/Shoemaker-Levy,e,6.0615,213.0564,22.2189,3.804620,0.1328120,0.29560535,259.2136,03/09.0/2020,2000,g  9.0,4.0
# From MPC101100
136P/Mueller,e,9.4229,137.4405,224.9031,4.196258,0.1146597,0.29191525,158.0093,03/09.0/2020,2000,g 11.0,4.0
# From MPEC 2019-VB6
137P/Shoemaker-Levy,e,4.8534,233.0731,141.0099,4.520547,0.1025457,0.57311560,46.3082,03/09.0/2020,2000,g 11.0,4.0
# From MPEC 2016-U66
138P/Shoemaker-Levy,e,10.0904,309.3296,95.5984,3.623838,0.1428733,0.53018312,44.4702,03/09.0/2020,2000,g 15.0,6.0
# From MPC108598
139P/Vaisala-Oterma,e,2.3333,242.2022,165.8373,4.525835,0.1023661,0.24621579,83.9763,03/09.0/2020,2000,g  9.5,4.0
# From MPEC 2015-E14
140P/Bowell-Skiff,e,3.8259,343.3311,172.9381,6.438217,0.0603331,0.69113048,101.1098,03/09.0/2020,2000,g 11.5,6.0
# From MPC105242
141P/Machholz,e,13.9548,241.8691,153.5470,3.056210,0.1844715,0.73586340,308.0974,03/09.0/2020,2000,g 12.0,12.0
# From MPC 95735
141P-H/Machholz,e,12.8431,246.0900,149.4500,3.008012,0.1889230,0.74682218,359.9270,08/24.0/2015,2000,g 18.5,4.0
# From MPC 71683
142P/Ge-Wang,e,12.2391,176.0814,174.0280,5.001860,0.0881063,0.49831819,322.0985,03/09.0/2020,2000,g  9.0,4.0
# From MPC 94676
143P/Kowal-Mrkos,e,4.6970,245.2829,320.5368,4.288168,0.1109932,0.41059226,74.6783,03/09.0/2020,2000,g  9.0,4.0
# From MPC104795
144P/Kushida,e,4.0351,244.4196,215.5183,3.805898,0.1327450,0.64076676,171.5299,03/09.0/2020,2000,g  8.5,8.0
# From MPC108598
145P/Shoemaker-Levy,e,11.2639,26.7930,10.2804,4.140955,0.1169643,0.54075883,107.6343,03/09.0/2020,2000,g 13.5,4.0
# From MPC100284
146P/Shoemaker-LINEAR,e,23.0792,53.4330,316.9070,4.034002,0.1216466,0.64633412,163.9671,03/09.0/2020,2000,g 15.0,4.0
# From MPC 75720
147P/Kushida-Muramatsu,e,2.3766,93.3404,351.5668,3.919530,0.1270144,0.25126044,188.5000,03/09.0/2020,2000,g 14.0,4.0
# From MPEC 2014-R70
148P/Anderson-LINEAR,e,3.6847,89.6889,6.5720,3.655353,0.1410296,0.54552969,243.2328,03/09.0/2020,2000,g  9.0,4.0
# From MPC 75720
149P/Mueller,e,29.7795,145.1856,43.9473,4.322438,0.1096758,0.39054878,42.2860,03/09.0/2020,2000,g  8.0,8.0
# From MPC 75720
150P/LONEOS,e,18.5080,272.4069,245.5898,3.880221,0.1289494,0.54651071,170.7453,03/09.0/2020,2000,g 13.5,4.0
# From MPEC 2015-Q71
151P/Helin,e,4.7259,143.1462,216.0621,5.765577,0.0711934,0.57271793,114.8539,03/09.0/2020,2000,g 10.0,6.0
# From MPC 79346
152P/Helin-Lawrence,e,9.8798,91.8700,163.7729,4.482253,0.1038627,0.30917390,289.9033,03/09.0/2020,2000,g 11.5,4.0
# From MPC 46101
153P/Ikeya-Zhang,e,27.7022,93.0419,35.2136,50.95728,0.0027095,0.98968378,0.0000,03/12.2219/2002,2000,g  9.0,4.0
# From MPC 87068
154P/Brewington,e,17.6276,343.0039,47.8641,4.804011,0.0936048,0.67497934,214.0436,03/09.0/2020,2000,g  2.5,12.0
# From MPC118098
155P/Shoemaker,e,6.3959,97.1977,14.6638,6.588653,0.0582786,0.72652489,6.7013,03/09.0/2020,2000,g 10.0,4.8
# From MPC105242
156P/Russell-LINEAR,e,17.2643,35.4012,0.3727,3.462127,0.1529994,0.61494805,321.1662,03/09.0/2020,2000,g 15.5,2.0
# From MPC104795
157P/Tritton,e,12.4151,288.2627,157.5045,3.413468,0.1562825,0.61217922,222.3815,03/09.0/2020,2000,g 10.0,4.0
# From MPEC 2016-K18
158P/Kowal-LINEAR,e,7.9084,135.9827,207.6398,4.848163,0.0923290,0.01484544,285.3838,03/09.0/2020,2000,g  9.0,4.0
# From MPEC 2019-VB6
159P/LONEOS,e,23.4608,55.0119,4.6556,5.857955,0.0695160,0.38144315,45.6610,03/09.0/2020,2000,g 10.0,4.0
# From MPEC 2019-TG9
160P/LINEAR,e,15.6158,333.3687,12.6499,3.771504,0.1345650,0.52608707,13.1491,03/09.0/2020,2000,g 15.5,2.0
# From MPC 75721
161P/Hartley-IRAS,e,95.7251,1.4382,46.9150,7.727347,0.0458837,0.83451159,247.3053,03/09.0/2020,2000,g  8.5,6.0
# From MPEC 2017-L52
